FLOCK 4BE-35            
1 60558U 24149CU  26074.21634892  .00104838  00000+0  22077-2 0  9991
2 60558  97.3783 157.5439 0005484 244.6737 115.3944 15.44868696 87853
FLOCK 4BE-5             
1 60559U 24149CV  26074.19532800  .00021757  00000+0  59753-3 0  9995
2 60559  97.3876 157.4886 0002526 261.9709  98.1249 15.37250711 87825
FLOCK 4BE-12            
1 60560U 24149CW  26074.22692522  .00123604  00000+0  23208-2 0  9998
2 60560  97.3747 158.3060 0006732 248.7957 111.2574 15.48135107 87921
FLOCK 4BE-3             
1 60561U 24149CX  26074.19370822  .00021537  00000+0  56919-3 0  9999
2 60561  97.3740 157.4101 0003497 251.2121 108.8745 15.38440286 87870
FLOCK 4BE-19            
1 60563U 24149CZ  26074.19268952  .00024645  00000+0  60568-3 0  9999
2 60563  97.3780 158.5353 0003345 257.8451 102.2420 15.40638272 87939
PELICAN-2               
1 62631U 25009Y   26074.24825229  .00035990  00000+0  89271-3 0  9992
2 62631  97.4039 164.6209 0007287 192.9368 167.1692 15.40259083 65091
PELICAN-3               
1 65315U 25188A   26074.13126939  .00065466  00000+0  16006-2 0  9998
2 65315  97.2247 151.6167 0005808 201.6445 158.4558 15.40560589 30836
PELICAN-4               
1 65316U 25188B   26074.21176764  .00010680  00000+0  26435-3 0  9995
2 65316  97.2278 151.7958 0000603 119.5327 240.5980 15.40608139 30841
