[{"OBJECT_NAME":"FLOCK 4BE-35","OBJECT_ID":"2024-149CU","EPOCH":"2026-03-15T05:11:32.546688","MEAN_MOTION":15.44868696,"ECCENTRICITY":0.00054846,"INCLINATION":97.3783,"RA_OF_ASC_NODE":157.5439,"ARG_OF_PERICENTER":244.6737,"MEAN_ANOMALY":115.3944,"EPHEMERIS_TYPE":0,"CLASSIFICATION_TYPE":"U","NORAD_CAT_ID":60558,"ELEMENT_SET_NO":999,"REV_AT_EPOCH":8785,"BSTAR":0.0022077014,"MEAN_MOTION_DOT":0.00104838,"MEAN_MOTION_DDOT":0},{"OBJECT_NAME":"FLOCK 4BE-5","OBJECT_ID":"2024-149CV","EPOCH":"2026-03-15T04:41:16.339200","MEAN_MOTION":15.37250711,"ECCENTRICITY":0.00025264,"INCLINATION":97.3876,"RA_OF_ASC_NODE":157.4886,"ARG_OF_PERICENTER":261.9709,"MEAN_ANOMALY":98.1249,"EPHEMERIS_TYPE":0,"CLASSIFICATION_TYPE":"U","NORAD_CAT_ID":60559,"ELEMENT_SET_NO":999,"REV_AT_EPOCH":8782,"BSTAR":0.00059753278,"MEAN_MOTION_DOT":0.00021757,"MEAN_MOTION_DDOT":0},{"OBJECT_NAME":"FLOCK 4BE-12","OBJECT_ID":"2024-149CW","EPOCH":"2026-03-15T05:26:46.339008","MEAN_MOTION":15.48135107,"ECCENTRICITY":0.00067326,"INCLINATION":97.3747,"RA_OF_ASC_NODE":158.306,"ARG_OF_PERICENTER":248.7957,"MEAN_ANOMALY":111.2574,"EPHEMERIS_TYPE":0,"CLASSIFICATION_TYPE":"U","NORAD_CAT_ID":60560,"ELEMENT_SET_NO":999,"REV_AT_EPOCH":8792,"BSTAR":0.0023208337,"MEAN_MOTION_DOT":0.00123604,"MEAN_MOTION_DDOT":0},{"OBJECT_NAME":"FLOCK 4BE-3","OBJECT_ID":"2024-149CX","EPOCH":"2026-03-15T04:38:56.390208","MEAN_MOTION":15.38440286,"ECCENTRICITY":0.00034974,"INCLINATION":97.374,"RA_OF_ASC_NODE":157.4101,"ARG_OF_PERICENTER":251.2121,"MEAN_ANOMALY":108.8745,"EPHEMERIS_TYPE":0,"CLASSIFICATION_TYPE":"U","NORAD_CAT_ID":60561,"ELEMENT_SET_NO":999,"REV_AT_EPOCH":8787,"BSTAR":0.00056919032,"MEAN_MOTION_DOT":0.00021537,"MEAN_MOTION_DDOT":0},{"OBJECT_NAME":"FLOCK 4BE-19","OBJECT_ID":"2024-149CZ","EPOCH":"2026-03-15T04:37:28.374528","MEAN_MOTION":15.40638272,"ECCENTRICITY":0.00033455,"INCLINATION":97.378,"RA_OF_ASC_NODE":158.5353,"ARG_OF_PERICENTER":257.8451,"MEAN_ANOMALY":102.242,"EPHEMERIS_TYPE":0,"CLASSIFICATION_TYPE":"U","NORAD_CAT_ID":60563,"ELEMENT_SET_NO":999,"REV_AT_EPOCH":8793,"BSTAR":0.00060568359,"MEAN_MOTION_DOT":0.00024645,"MEAN_MOTION_DDOT":0},{"OBJECT_NAME":"PELICAN-2","OBJECT_ID":"2025-009Y","EPOCH":"2026-03-15T05:57:28.997856","MEAN_MOTION":15.40259083,"ECCENTRICITY":0.00072874,"INCLINATION":97.4039,"RA_OF_ASC_NODE":164.6209,"ARG_OF_PERICENTER":192.9368,"MEAN_ANOMALY":167.1692,"EPHEMERIS_TYPE":0,"CLASSIFICATION_TYPE":"U","NORAD_CAT_ID":62631,"ELEMENT_SET_NO":999,"REV_AT_EPOCH":6509,"BSTAR":0.00089271485,"MEAN_MOTION_DOT":0.0003599,"MEAN_MOTION_DDOT":0},{"OBJECT_NAME":"PELICAN-3","OBJECT_ID":"2025-188A","EPOCH":"2026-03-15T03:09:01.675296","MEAN_MOTION":15.40560589,"ECCENTRICITY":0.00058088,"INCLINATION":97.2247,"RA_OF_ASC_NODE":151.6167,"ARG_OF_PERICENTER":201.6445,"MEAN_ANOMALY":158.4558,"EPHEMERIS_TYPE":0,"CLASSIFICATION_TYPE":"U","NORAD_CAT_ID":65315,"ELEMENT_SET_NO":999,"REV_AT_EPOCH":3083,"BSTAR":0.001600556,"MEAN_MOTION_DOT":0.00065466,"MEAN_MOTION_DDOT":0},{"OBJECT_NAME":"PELICAN-4","OBJECT_ID":"2025-188B","EPOCH":"2026-03-15T05:04:56.724096","MEAN_MOTION":15.40608139,"ECCENTRICITY":6.034e-5,"INCLINATION":97.2278,"RA_OF_ASC_NODE":151.7958,"ARG_OF_PERICENTER":119.5327,"MEAN_ANOMALY":240.598,"EPHEMERIS_TYPE":0,"CLASSIFICATION_TYPE":"U","NORAD_CAT_ID":65316,"ELEMENT_SET_NO":999,"REV_AT_EPOCH":3084,"BSTAR":0.00026435484,"MEAN_MOTION_DOT":0.0001068,"MEAN_MOTION_DDOT":0}]
